NORAD_CAT_ID,OBJECT_NAME,OBJECT_TYPE,EPOCH,MEAN_MOTION,ECCENTRICITY,INCLINATION,RA_OF_ASC_NODE,ARG_OF_PERICENTER,MEAN_ANOMALY,BSTAR,MEAN_MOTION_DOT,MEAN_MOTION_DDOT,TLE_LINE0,TLE_LINE1,TLE_LINE2,SEMIMAJOR_AXIS,PERIOD,APOGEE,PERIGEE,DECAYED
55919.0,STARLINK-5871,PAYLOAD,2024-01-25 10:55:02,14.9833111,0.0002883,69.9997,96.6056,265.4503,94.6326,-6.8316e-07,-1.01e-06,0.0,0 STARLINK-5871,1 55919U 23037F   24025.45489112 -.00000101  00000-0 -68316-6 0  9995,2 55919  69.9997  96.6056 0002883 265.4503  94.6326 14.98331110 47853,6950.189,96.107,574.058,570.051,0.0
55919.0,STARLINK-5871,PAYLOAD,2024-01-25 14:07:18,14.98333752,0.000283,70.0,96.2697,261.2673,98.8166,1.6699e-05,1.06e-06,0.0,0 STARLINK-5871,1 55919U 23037F   24025.58840828  .00000106  00000-0  16699-4 0  9992,2 55919  70.0000  96.2697 0002830 261.2673  98.8166 14.98333752 47539,6950.181,96.107,574.013,570.079,0.0
55919.0,STARLINK-5871,PAYLOAD,2024-01-26 10:57:03,14.98330252,0.000287,69.9998,94.0815,261.2473,98.8361,0.00011026,1.223e-05,0.0,0 STARLINK-5871,1 55919U 23037F   24026.45628741  .00001223  00000-0  11026-3 0  9996,2 55919  69.9998  94.0815 0002870 261.2473  98.8361 14.98330252 48004,6950.192,96.107,574.052,570.062,0.0
55919.0,STARLINK-5871,PAYLOAD,2024-01-26 14:09:19,14.98331346,0.0002856,69.9999,93.745,261.2371,98.8465,0.00011802,1.316e-05,0.0,0 STARLINK-5871,1 55919U 23037F   24026.58980633  .00001316  00000-0  11802-3 0  9996,2 55919  69.9999  93.7450 0002856 261.2371  98.8465 14.98331346 47680,6950.189,96.107,574.039,570.069,0.0
55919.0,STARLINK-5871,PAYLOAD,2024-01-27 12:35:12,14.98328719,0.0002657,70.0003,91.3894,254.3123,105.7743,-5.3505e-06,-1.57e-06,0.0,0 STARLINK-5871,1 55919U 23037F   24027.52445171 -.00000157  00000-0 -53505-5 0  9996,2 55919  70.0003  91.3894 0002657 254.3123 105.7743 14.98328719 48163,6950.197,96.107,573.909,570.215,0.0
55919.0,STARLINK-5871,PAYLOAD,2024-01-27 14:11:20,14.98328701,0.0002664,70.0002,91.2209,255.9921,104.0941,-6.4568e-06,-1.7e-06,0.0,0 STARLINK-5871,1 55919U 23037F   24027.59121183 -.00000170  00000-0 -64568-5 0  9993,2 55919  70.0002  91.2209 0002664 255.9921 104.0941 14.98328701 47838,6950.197,96.107,573.913,570.21,0.0
55919.0,STARLINK-5871,PAYLOAD,2024-01-28 14:13:21,14.98330339,0.0002589,70.0002,88.6945,261.7323,98.3542,-7.003e-06,-1.76e-06,0.0,0 STARLINK-5871,1 55919U 23037F   24028.59261049 -.00000176  00000-0 -70030-5 0  9997,2 55919  70.0002  88.6945 0002589 261.7323  98.3542 14.98330339 47980,6950.192,96.107,573.856,570.257,0.0
55919.0,STARLINK-5871,PAYLOAD,2024-01-29 11:03:05,14.98332689,0.0002679,69.9998,86.5058,265.4844,94.6009,8.0019e-05,8.62e-06,0.0,0 STARLINK-5871,1 55919U 23037F   24029.46048580  .00000862  00000-0  80019-4 0  9994,2 55919  69.9998  86.5058 0002679 265.4844  94.6009 14.98332689 48115,6950.185,96.107,573.912,570.188,0.0
55919.0,STARLINK-5871,PAYLOAD,2024-01-30 04:40:34,14.98328869,0.0002618,69.9998,84.654,263.8304,96.2557,1.4525e-05,8e-07,0.0,0 STARLINK-5871,1 55919U 23037F   24030.19484939  .00000080  00000-0  14525-4 0  9999,2 55919  69.9998  84.6540 0002618 263.8304  96.2557 14.98328869 48566,6950.196,96.107,573.881,570.242,0.0
55919.0,STARLINK-5871,PAYLOAD,2024-01-30 11:05:07,14.98330781,0.0002526,69.9999,83.9813,259.888,100.1994,-0.00016437,-2.054e-05,0.0,0 STARLINK-5871,1 55919U 23037F   24030.46189289 -.00002054  00000-0 -16437-3 0  9997,2 55919  69.9999  83.9813 0002526 259.8880 100.1994 14.98330781 48267,6950.19,96.107,573.811,570.3,0.0
55919.0,STARLINK-5871,PAYLOAD,2024-01-31 11:07:07,14.983344,0.0002727,69.9998,81.4569,257.8255,102.2599,-2.0276e-06,-1.17e-06,0.0,0 STARLINK-5871,1 55919U 23037F   24031.46328601 -.00000117  00000-0 -20276-5 0  9997,2 55919  69.9998  81.4569 0002727 257.8255 102.2599 14.98334400 48754,6950.179,96.107,573.94,570.149,0.0
55919.0,STARLINK-5871,PAYLOAD,2024-02-01 11:09:09,14.98323817,0.0002729,70.0,78.9324,257.7774,102.3079,2.272e-05,1.78e-06,0.0,0 STARLINK-5871,1 55919U 23037F   24032.46469253  .00000178  00000-0  22720-4 0  9997,2 55919  70.0000  78.9324 0002729 257.7774 102.3079 14.98323817 48909,6950.212,96.107,573.974,570.18,0.0
55919.0,STARLINK-5871,PAYLOAD,2024-02-01 12:45:17,14.98323812,0.0002892,69.9994,78.7626,266.384,93.6988,2.1446e-05,1.63e-06,0.0,0 STARLINK-5871,1 55919U 23037F   24032.53145311  .00000163  00000-0  21446-4 0  9999,2 55919  69.9994  78.7626 0002892 266.3840  93.6988 14.98323812 48571,6950.212,96.107,574.087,570.067,0.0
55919.0,STARLINK-5871,PAYLOAD,2024-02-02 04:46:37,14.98333449,0.0003002,69.9989,77.0782,269.4659,90.6156,3.0379e-05,2.7e-06,0.0,0 STARLINK-5871,1 55919U 23037F   24033.19904676  .00000270  00000-0  30379-4 0  9993,2 55919  69.9989  77.0782 0003002 269.4659  90.6156 14.98333449 49017,6950.182,96.107,574.134,569.961,0.0
55919.0,STARLINK-5871,PAYLOAD,2024-02-02 12:47:17,14.98337437,0.0002967,69.9991,76.2372,270.6024,89.4795,6.2291e-05,6.5e-06,0.0,0 STARLINK-5871,1 55919U 23037F   24033.53284236  .00000650  00000-0  62291-4 0  9994,2 55919  69.9991  76.2372 0002967 270.6024  89.4795 14.98337437 48728,6950.17,96.107,574.097,569.973,0.0
55919.0,STARLINK-5871,PAYLOAD,2024-02-03 11:13:11,14.98325137,0.0002557,69.9998,73.8798,270.623,89.4636,6.6808e-05,7.04e-06,0.0,0 STARLINK-5871,1 55919U 23037F   24034.46748997  .00000704  00000-0  66808-4 0  9994,2 55919  69.9998  73.8798 0002557 270.6230  89.4636 14.98325137 49206,6950.208,96.107,573.85,570.296,0.0
55919.0,STARLINK-5871,PAYLOAD,2024-02-03 12:49:19,14.98292917,0.000264,69.9995,73.712,274.1992,85.8865,0.00064346,7.586e-05,0.0,0 STARLINK-5871,1 55919U 23037F   24034.53425649  .00007586  00000-0  64346-3 0  9997,2 55919  69.9995  73.7120 0002640 274.1992  85.8865 14.98292917 48873,6950.308,96.109,574.007,570.338,0.0
55919.0,STARLINK-5871,PAYLOAD,2024-02-03 19:13:51,14.98331444,0.000278,69.9998,73.0382,282.4136,77.6712,4.5408e-06,-3.9e-07,0.0,0 STARLINK-5871,1 55919U 23037F   24034.80128815 -.00000039  00000-0  45408-5 0  9999,2 55919  69.9998  73.0382 0002780 282.4136  77.6712 14.98331444 48910,6950.188,96.107,573.986,570.121,0.0
55919.0,STARLINK-5871,PAYLOAD,2024-02-04 03:14:31,14.98335321,0.0002762,69.9996,72.1968,270.9293,89.1549,-5.2141e-06,-1.55e-06,0.0,0 STARLINK-5871,1 55919U 23037F   24035.13508439 -.00000155  00000-0 -52141-5 0  9992,2 55919  69.9996  72.1968 0002762 270.9293  89.1549 14.98335321 49302,6950.176,96.107,573.961,570.122,0.0
55919.0,STARLINK-5871,PAYLOAD,2024-02-04 12:51:19,14.98335546,0.0002795,69.9994,71.1867,269.7835,90.3004,-1.6536e-06,-1.13e-06,0.0,0 STARLINK-5871,1 55919U 23037F   24035.53564306 -.00000113  00000-0 -16536-5 0  9993,2 55919  69.9994  71.1867 0002795 269.7835  90.3004 14.98335546 49029,6950.176,96.107,573.983,570.098,0.0
55919.0,STARLINK-5871,PAYLOAD,2024-02-05 03:16:32,14.98326867,0.0002785,69.9994,69.6718,265.6772,94.4068,-6.3396e-06,-1.69e-06,0.0,0 STARLINK-5871,1 55919U 23037F   24036.13648781 -.00000169  00000-0 -63396-5 0  9997,2 55919  69.9994  69.6718 0002785 265.6772  94.4068 14.98326867 49458,6950.203,96.107,574.003,570.132,0.0
55919.0,STARLINK-5871,PAYLOAD,2024-02-05 11:17:12,14.98326884,0.0002798,69.9995,68.8303,265.7252,94.3587,-6.2261e-06,-1.67e-06,0.0,0 STARLINK-5871,1 55919U 23037F   24036.47028848 -.00000167  00000-0 -62261-5 0  9998,2 55919  69.9995  68.8303 0002798 265.7252  94.3587 14.98326884 49160,6950.203,96.107,574.012,570.123,0.0
55919.0,STARLINK-5871,PAYLOAD,2024-02-05 19:17:52,14.9833278,0.0002899,69.9993,67.9888,264.4714,95.6115,5.2491e-05,5.33e-06,0.0,0 STARLINK-5871,1 55919U 23037F   24036.80408277  .00000533  00000-0  52491-4 0  9991,2 55919  69.9993  67.9888 0002899 264.4714  95.6115 14.98332780 49553,6950.184,96.107,574.064,570.034,0.0
55919.0,STARLINK-5871,PAYLOAD,2024-02-06 11:19:13,14.98333951,0.0002909,69.9993,66.3058,264.5241,95.5586,3.2485e-05,2.95e-06,0.0,0 STARLINK-5871,1 55919U 23037F   24037.47168209  .00000295  00000-0  32485-4 0  9999,2 55919  69.9993  66.3058 0002909 264.5241  95.5586 14.98333951 49319,6950.181,96.107,574.067,570.024,0.0
55919.0,STARLINK-5871,PAYLOAD,2024-02-07 03:20:34,14.98328321,0.0003018,69.9993,64.6231,267.1899,92.8915,2.5661e-05,2.13e-06,0.0,0 STARLINK-5871,1 55919U 23037F   24038.13928556  .00000213  00000-0  25661-4 0  9990,2 55919  69.9993  64.6231 0003018 267.1899  92.8915 14.98328321 49752,6950.198,96.107,574.161,569.966,0.0
55919.0,STARLINK-5871,PAYLOAD,2024-02-07 11:21:14,14.98330455,0.0003049,69.9992,63.7812,270.3965,89.6845,4.4213e-05,4.35e-06,0.0,0 STARLINK-5871,1 55919U 23037F   24038.47308400  .00000435  00000-0  44213-4 0  9997,2 55919  69.9992  63.7812 0003049 270.3965  89.6845 14.98330455 49465,6950.191,96.107,574.176,569.937,0.0
55919.0,STARLINK-5871,PAYLOAD,2024-02-07 19:21:55,14.9832775,0.0002965,69.9995,62.938,270.8015,89.2804,-5.3188e-06,-1.56e-06,0.0,0 STARLINK-5871,1 55919U 23037F   24038.80688730 -.00000156  00000-0 -53188-5 0  9995,2 55919  69.9995  62.9380 0002965 270.8015  89.2804 14.98327750 49517,6950.2,96.107,574.126,570.004,0.0
55919.0,STARLINK-5871,PAYLOAD,2024-02-08 01:46:27,14.98307552,0.000292,69.9994,62.2645,267.7252,92.3573,0.00034143,3.981e-05,0.0,0 STARLINK-5871,1 55919U 23037F   24039.07393086  .00003981  00000-0  34143-3 0  9997,2 55919  69.9994  62.2645 0002920 267.7252  92.3573 14.98307552 49899,6950.262,96.108,574.157,570.098,0.0
55919.0,STARLINK-5871,PAYLOAD,2024-02-08 11:23:15,14.98332572,0.00029,69.9994,61.2544,269.5848,90.4979,1.2296e-05,5.4e-07,0.0,0 STARLINK-5871,1 55919U 23037F   24039.47448394  .00000054  00000-0  12296-4 0  9998,2 55919  69.9994  61.2544 0002900 269.5848  90.4979 14.98332572 49951,6950.185,96.107,574.065,570.034,0.0
55919.0,STARLINK-5871,PAYLOAD,2024-02-09 03:24:33,14.98367058,0.0002403,69.9993,59.571,236.3267,123.7663,0.00042205,4.951e-05,0.0,0 STARLINK-5871,1 55919U 23037F   24040.14205136  .00004951  00000-0  42205-3 0  9991,2 55919  69.9993  59.5710 0002403 236.3267 123.7663 14.98367058 50050,6950.078,96.105,573.613,570.273,0.0
